[{"OBJECT_NAME":"TEVEL2-2","OBJECT_ID":"2025-052K","EPOCH":"2026-03-09T15:33:48.895776","MEAN_MOTION":15.30343745,"ECCENTRICITY":0.0004693,"INCLINATION":97.3987,"RA_OF_ASC_NODE":324.77,"ARG_OF_PERICENTER":105.793,"MEAN_ANOMALY":254.3828,"EPHEMERIS_TYPE":0,"CLASSIFICATION_TYPE":"U","NORAD_CAT_ID":63219,"ELEMENT_SET_NO":999,"REV_AT_EPOCH":5485,"BSTAR":0.00069428,"MEAN_MOTION_DOT":0.00020339,"MEAN_MOTION_DDOT":0},{"OBJECT_NAME":"STARLINK-34606","OBJECT_ID":"2025-144G","EPOCH":"2026-03-09T15:00:19.674144","MEAN_MOTION":15.30188216,"ECCENTRICITY":8.54e-5,"INCLINATION":53.1601,"RA_OF_ASC_NODE":181.2267,"ARG_OF_PERICENTER":103.2301,"MEAN_ANOMALY":256.8795,"EPHEMERIS_TYPE":0,"CLASSIFICATION_TYPE":"U","NORAD_CAT_ID":64730,"ELEMENT_SET_NO":999,"REV_AT_EPOCH":3970,"BSTAR":0.0011569,"MEAN_MOTION_DOT":0.00034051,"MEAN_MOTION_DDOT":0}]
